{
  "type": "FeatureCollection",
  "features": [
    {
      "type": "Feature",
      "properties": {
        "norad_id": 31388,
        "name": "FENGYUN 1C DEB",
        "group": "fengyun-1c-debris",
        "lat": -64.36232724871618,
        "lon": 0.5667154975736126,
        "alt_km": 888.8463298543265,
        "timestamp": "2025-12-19T22:41:52.675622+00:00",
        "meta_object_name": "FENGYUN 1C DEB",
        "meta_object_id": "1999-025BSU",
        "meta_epoch": "2025-12-19T06:01:39.259776",
        "meta_mean_motion": 14.07430503,
        "meta_eccentricity": 0.0046847,
        "meta_inclination": 98.8051,
        "meta_ra_of_asc_node": 341.048,
        "meta_arg_of_pericenter": 182.5144,
        "meta_mean_anomaly": 193.8091,
        "meta_ephemeris_type": 0,
        "meta_classification_type": "U",
        "meta_norad_cat_id": 31388,
        "meta_element_set_no": 999,
        "meta_rev_at_epoch": 96533,
        "meta_bstar": 0.00018398,
        "meta_mean_motion_dot": 2.7e-06,
        "meta_mean_motion_ddot": 0,
        "tle_line1": "1 31388U 99025BSU 25353.25114884  .00000270  00000+0  18398-3 0  9999",
        "tle_line2": "2 31388  98.8051 341.0480 0046847 182.5144 193.8091 14.07430503965334"
      },
      "geometry": {
        "type": "Point",
        "coordinates": [
          0.5667154975736126,
          -64.36232724871618
        ]
      }
    },
    {
      "type": "Feature",
      "properties": {
        "norad_id": 31389,
        "name": "FENGYUN 1C DEB",
        "group": "fengyun-1c-debris",
        "lat": 6.295734385267682,
        "lon": -18.991297838358108,
        "alt_km": 671.2861077838925,
        "timestamp": "2025-12-19T22:41:52.675633+00:00",
        "meta_object_name": "FENGYUN 1C DEB",
        "meta_object_id": "1999-025BSV",
        "meta_epoch": "2025-12-19T10:32:03.356736",
        "meta_mean_motion": 14.61295048,
        "meta_eccentricity": 0.0028103,
        "meta_inclination": 99.0412,
        "meta_ra_of_asc_node": 159.4488,
        "meta_arg_of_pericenter": 169.1991,
        "meta_mean_anomaly": 219.5924,
        "meta_ephemeris_type": 0,
        "meta_classification_type": "U",
        "meta_norad_cat_id": 31389,
        "meta_element_set_no": 999,
        "meta_rev_at_epoch": 96595,
        "meta_bstar": 0.0032197,
        "meta_mean_motion_dot": 0.00015963,
        "meta_mean_motion_ddot": 0,
        "tle_line1": "1 31389U 99025BSV 25353.43892774  .00015963  00000+0  32197-2 0  9998",
        "tle_line2": "2 31389  99.0412 159.4488 0028103 169.1991 219.5924 14.61295048965956"
      },
      "geometry": {
        "type": "Point",
        "coordinates": [
          -18.991297838358108,
          6.295734385267682
        ]
      }
    },
    {
      "type": "Feature",
      "properties": {
        "norad_id": 31410,
        "name": "FENGYUN 1C DEB",
        "group": "fengyun-1c-debris",
        "lat": -22.61801089919988,
        "lon": -27.929408360086146,
        "alt_km": 710.7343965463497,
        "timestamp": "2025-12-19T22:41:52.675643+00:00",
        "meta_object_name": "FENGYUN 1C DEB",
        "meta_object_id": "1999-025BSW",
        "meta_epoch": "2025-12-18T05:01:14.684736",
        "meta_mean_motion": 14.44799879,
        "meta_eccentricity": 0.01104959,
        "meta_inclination": 98.8358,
        "meta_ra_of_asc_node": 153.9811,
        "meta_arg_of_pericenter": 270.2553,
        "meta_mean_anomaly": 266.5262,
        "meta_ephemeris_type": 0,
        "meta_classification_type": "U",
        "meta_norad_cat_id": 31410,
        "meta_element_set_no": 999,
        "meta_rev_at_epoch": 97830,
        "meta_bstar": 0.00073154737,
        "meta_mean_motion_dot": 2.687e-05,
        "meta_mean_motion_ddot": 0,
        "tle_line1": "1 31410U 99025BSW 25352.20919774  .00002687  00000+0  73155-3 0  9996",
        "tle_line2": "2 31410  98.8358 153.9811 0110495 270.2553 266.5262 14.44799879978302"
      },
      "geometry": {
        "type": "Point",
        "coordinates": [
          -27.929408360086146,
          -22.61801089919988
        ]
      }
    },
    {
      "type": "Feature",
      "properties": {
        "norad_id": 31411,
        "name": "FENGYUN 1C DEB",
        "group": "fengyun-1c-debris",
        "lat": -63.78399839091426,
        "lon": -142.875427431233,
        "alt_km": 734.6127839737655,
        "timestamp": "2025-12-19T22:41:52.675654+00:00",
        "meta_object_name": "FENGYUN 1C DEB",
        "meta_object_id": "1999-025BSX",
        "meta_epoch": "2025-12-18T03:38:38.787648",
        "meta_mean_motion": 14.28003364,
        "meta_eccentricity": 0.01008375,
        "meta_inclination": 98.6689,
        "meta_ra_of_asc_node": 53.3931,
        "meta_arg_of_pericenter": 238.8869,
        "meta_mean_anomaly": 149.0672,
        "meta_ephemeris_type": 0,
        "meta_classification_type": "U",
        "meta_norad_cat_id": 31411,
        "meta_element_set_no": 999,
        "meta_rev_at_epoch": 94557,
        "meta_bstar": 0.00041039153,
        "meta_mean_motion_dot": 1.03e-05,
        "meta_mean_motion_ddot": 0,
        "tle_line1": "1 31411U 99025BSX 25352.15183782  .00001030  00000+0  41039-3 0  9990",
        "tle_line2": "2 31411  98.6689  53.3931 0100837 238.8869 149.0672 14.28003364945575"
      },
      "geometry": {
        "type": "Point",
        "coordinates": [
          -142.875427431233,
          -63.78399839091426
        ]
      }
    },
    {
      "type": "Feature",
      "properties": {
        "norad_id": 31412,
        "name": "FENGYUN 1C DEB",
        "group": "fengyun-1c-debris",
        "lat": 62.984707125083645,
        "lon": 134.64374368470197,
        "alt_km": 910.424611821375,
        "timestamp": "2025-12-19T22:41:52.675664+00:00",
        "meta_object_name": "FENGYUN 1C DEB",
        "meta_object_id": "1999-025BSY",
        "meta_epoch": "2025-12-18T06:58:31.889568",
        "meta_mean_motion": 14.09872535,
        "meta_eccentricity": 0.00833273,
        "meta_inclination": 98.5486,
        "meta_ra_of_asc_node": 295.9132,
        "meta_arg_of_pericenter": 319.8395,
        "meta_mean_anomaly": 39.6637,
        "meta_ephemeris_type": 0,
        "meta_classification_type": "U",
        "meta_norad_cat_id": 31412,
        "meta_element_set_no": 999,
        "meta_rev_at_epoch": 61070,
        "meta_bstar": 0.0015591664,
        "meta_mean_motion_dot": 2.792e-05,
        "meta_mean_motion_ddot": 0,
        "tle_line1": "1 31412U 99025BSY 25352.29064687  .00002792  00000+0  15592-2 0  9998",
        "tle_line2": "2 31412  98.5486 295.9132 0083327 319.8395  39.6637 14.09872535610707"
      },
      "geometry": {
        "type": "Point",
        "coordinates": [
          134.64374368470197,
          62.984707125083645
        ]
      }
    },
    {
      "type": "Feature",
      "properties": {
        "norad_id": 31415,
        "name": "FENGYUN 1C DEB",
        "group": "fengyun-1c-debris",
        "lat": 30.641785357352934,
        "lon": 132.5425363784543,
        "alt_km": 791.1778040954832,
        "timestamp": "2025-12-19T22:41:52.675675+00:00",
        "meta_object_name": "FENGYUN 1C DEB",
        "meta_object_id": "1999-025BTB",
        "meta_epoch": "2025-12-14T14:26:42.789696",
        "meta_mean_motion": 14.30617484,
        "meta_eccentricity": 0.00641277,
        "meta_inclination": 99.6387,
        "meta_ra_of_asc_node": 300.8477,
        "meta_arg_of_pericenter": 69.4394,
        "meta_mean_anomaly": 291.365,
        "meta_ephemeris_type": 0,
        "meta_classification_type": "U",
        "meta_norad_cat_id": 31415,
        "meta_element_set_no": 999,
        "meta_rev_at_epoch": 62857,
        "meta_bstar": 0.0013058291,
        "meta_mean_motion_dot": 3.436e-05,
        "meta_mean_motion_ddot": 0,
        "tle_line1": "1 31415U 99025BTB 25348.60188414  .00003436  00000+0  13058-2 0  9997",
        "tle_line2": "2 31415  99.6387 300.8477 0064127  69.4394 291.3650 14.30617484628574"
      },
      "geometry": {
        "type": "Point",
        "coordinates": [
          132.5425363784543,
          30.641785357352934
        ]
      }
    },
    {
      "type": "Feature",
      "properties": {
        "norad_id": 31416,
        "name": "FENGYUN 1C DEB",
        "group": "fengyun-1c-debris",
        "lat": 80.77964028368228,
        "lon": -34.49393865554648,
        "alt_km": 822.6020282434638,
        "timestamp": "2025-12-19T22:41:52.675685+00:00",
        "meta_object_name": "FENGYUN 1C DEB",
        "meta_object_id": "1999-025BTC",
        "meta_epoch": "2025-12-18T22:56:39.318432",
        "meta_mean_motion": 14.40684708,
        "meta_eccentricity": 0.01332267,
        "meta_inclination": 99.0506,
        "meta_ra_of_asc_node": 43.5455,
        "meta_arg_of_pericenter": 232.6101,
        "meta_mean_anomaly": 126.2896,
        "meta_ephemeris_type": 0,
        "meta_classification_type": "U",
        "meta_norad_cat_id": 31416,
        "meta_element_set_no": 999,
        "meta_rev_at_epoch": 65609,
        "meta_bstar": 0.00022725408,
        "meta_mean_motion_dot": 7.51e-06,
        "meta_mean_motion_ddot": 0,
        "tle_line1": "1 31416U 99025BTC 25352.95601063  .00000751  00000+0  22725-3 0  9990",
        "tle_line2": "2 31416  99.0506  43.5455 0133226 232.6101 126.2896 14.40684708656096"
      },
      "geometry": {
        "type": "Point",
        "coordinates": [
          -34.49393865554648,
          80.77964028368228
        ]
      }
    }
  ]
}